{
    "links": {
        "self": "http://www.neowsapp.com/rest/v1/neo/3842753?api_key=iIulBulltgU6a56xZRHN4H3l9WmuAYTsLGpBGhQ2"
    },
    "id": "3842753",
    "neo_reference_id": "3842753",
    "name": "(2019 LC1)",
    "designation": "2019 LC1",
    "nasa_jpl_url": "http://ssd.jpl.nasa.gov/sbdb.cgi?sstr=3842753",
    "absolute_magnitude_h": 25.4,
    "estimated_diameter": {
        "kilometers": {
            "estimated_diameter_min": 0.022108281,
            "estimated_diameter_max": 0.0494356193
        },
        "meters": {
            "estimated_diameter_min": 22.1082810359,
            "estimated_diameter_max": 49.435619262
        },
        "miles": {
            "estimated_diameter_min": 0.0137374447,
            "estimated_diameter_max": 0.0307178602
        },
        "feet": {
            "estimated_diameter_min": 72.5337327539,
            "estimated_diameter_max": 162.1903570994
        }
    },
    "is_potentially_hazardous_asteroid": false,
    "close_approach_data": [
        {
            "close_approach_date": "2019-06-19",
            "close_approach_date_full": "2019-Jun-19 09:45",
            "epoch_date_close_approach": 1560937500000,
            "relative_velocity": {
                "kilometers_per_second": "9.8829871136",
                "kilometers_per_hour": "35578.7536091266",
                "miles_per_hour": "22107.2538745154"
            },
            "miss_distance": {
                "astronomical": "0.0491423662",
                "lunar": "19.1163804518",
                "kilometers": "7351593.310279994",
                "miles": "4568068.2588681572"
            },
            "orbiting_body": "Earth"
        }
    ],
    "orbital_data": {
        "orbit_id": "1",
        "orbit_determination_date": "2019-06-05 08:12:02",
        "first_observation_date": "2019-05-30",
        "last_observation_date": "2019-06-05",
        "data_arc_in_days": 6,
        "observations_used": 18,
        "orbit_uncertainty": "8",
        "minimum_orbit_intersection": ".0486897",
        "jupiter_tisserand_invariant": "3.511",
        "epoch_osculation": "2458635.5",
        "eccentricity": ".5395030369058292",
        "semi_major_axis": "2.131418411078837",
        "inclination": "7.056054962505811",
        "ascending_node_longitude": "66.83127199980528",
        "orbital_period": "1136.583890355897",
        "perihelion_distance": ".9815117053848073",
        "perihelion_argument": "232.520729127746",
        "aphelion_distance": "3.281325116772867",
        "perihelion_time": "2458680.247534143603",
        "mean_anomaly": "345.8267282966215",
        "mean_motion": ".3167386086101164",
        "equinox": "J2000",
        "orbit_class": {
            "orbit_class_type": "APO",
            "orbit_class_description": "Near-Earth asteroid orbits which cross the Earth’s orbit similar to that of 1862 Apollo",
            "orbit_class_range": "a (semi-major axis) > 1.0 AU; q (perihelion) < 1.017 AU"
        }
    },
    "is_sentry_object": false
}